# From MPEC 2022-S20
C/1995 O1 (Hale-Bopp),e,89.4416,282.4124,130.4168,176.9317,0.0004188,0.99496626,0.0000,03/29.4938/1997,2000,g -2.0,4.0
# From NK 1615
P/1996 R2 (Lagerkvist),e,2.6009,40.0091,333.4313,3.774370,0.1344118,0.31459288,210.6824,05/31.0/2023,2000,g 11.5,4.0
# From MPC 75703
P/1998 VS24 (LINEAR),e,5.0264,159.0327,244.6805,4.524292,0.1024184,0.24342136,200.2811,05/31.0/2023,2000,g 13.0,2.0
# From NK 731
P/1999 RO28 (LONEOS),e,7.5642,137.8539,231.3285,3.426343,0.1554025,0.67251009,222.7880,05/31.0/2023,2000,g 20.0,2.0
# From MPC 75704
P/1999 XN120 (Catalina),e,5.0298,285.2957,161.6592,4.179015,0.1153701,0.21057492,251.9282,05/31.0/2023,2000,g 13.5,2.0
# From NK 744
P/2000 R2 (LINEAR),e,11.6843,160.2844,176.5997,3.468040,0.1526082,0.53120369,220.2310,05/31.0/2023,2000,g 18.0,4.0
# From MPC 43019
P/2001 H5 (NEAT),e,8.3669,328.6832,224.6808,6.095544,0.0654916,0.59824732,182.6355,05/31.0/2023,2000,g 12.0,4.0
# From MPC 75704
P/2001 Q6 (NEAT),e,56.9118,22.1841,42.9396,7.963753,0.0438558,0.82350510,348.0130,05/31.0/2023,2000,g 13.5,4.0
# From MPC 47727
P/2002 EJ57 (LINEAR),e,4.9796,330.2890,167.2690,6.460877,0.0600160,0.59265311,108.5386,05/31.0/2023,2000,g 12.5,4.0
# From MPC109588
P/2002 T6 (NEAT-LINEAR),e,10.8571,206.0437,219.3963,7.760473,0.0455902,0.56384080,341.0894,05/31.0/2023,2000,g 10.5,4.0
# From MPC 75007
C/2002 VQ94 (LINEAR),e,70.7073,35.1586,99.9191,184.5070,0.0003933,0.96318334,2.4884,05/31.0/2023,2000,g  9.5,2.0
# From MPC 50354
P/2003 F2 (NEAT),e,11.6180,358.9693,192.2778,6.501047,0.0594606,0.54131178,77.0595,05/31.0/2023,2000,g 16.5,2.0
# From MPC 50139
P/2003 QX29 (NEAT),e,11.3958,264.4979,37.6990,8.011603,0.0434635,0.47225210,325.2786,05/31.0/2023,2000,g  8.5,4.0
# From MPC105235
P/2003 T12 (SOHO),e,11.0217,174.5801,219.7658,2.585079,0.2371338,0.77023635,265.2063,05/31.0/2023,2000,g 17.0,4.0
# From MPC 54558
P/2004 DO29 (Spacewatch-LINEAR),e,14.5291,147.3797,40.4521,7.301239,0.0499585,0.44158263,341.5476,05/31.0/2023,2000,g 13.5,2.0
# From MPEC 2022-YN2
P/2004 FY140 (LINEAR),e,2.1619,327.2724,254.1886,4.969521,0.0889677,0.19167139,238.6271,05/31.0/2023,2000,g 12.5,2.0
# From MPC 53304
P/2004 R3 (LINEAR-NEAT),e,12.7845,305.2901,37.5701,4.758999,0.0949359,0.25505171,58.7183,05/31.0/2023,2000,g 14.5,4.0
# From MPC 55521
P/2004 V3 (Siding Spring),e,50.4444,356.1261,322.5276,7.126601,0.0518060,0.44573906,350.8656,05/31.0/2023,2000,g 11.5,4.0
# From MPC 75705
P/2004 V5 (LINEAR-Hill),e,19.3491,47.7700,87.5032,7.997891,0.0435753,0.44563708,293.1691,05/31.0/2023,2000,g  8.0,4.0
# From MPC 54164
P/2005 E1 (Tubbiolo),e,4.2622,335.5786,193.8426,7.055305,0.0525933,0.37597046,353.6897,05/31.0/2023,2000,g 10.0,4.0
# From MPC 79019
P/2005 J1 (McNaught),e,31.7330,268.8290,338.9049,3.572586,0.1459587,0.56894925,247.1814,05/31.0/2023,2000,g 16.5,4.0
# From MPC 74246
P/2005 L1 (McNaught),e,7.6919,137.8357,151.0336,4.006747,0.1228899,0.21574769,69.8266,05/31.0/2023,2000,g  9.5,4.0
# From MPC 75706
P/2005 S2 (Skiff),e,3.1357,161.2185,229.6048,8.000166,0.0435568,0.19879622,270.2943,05/31.0/2023,2000,g  7.5,4.0
# From MPC 75706
P/2005 SB216 (LONEOS),e,24.1190,1.1175,83.2150,7.149986,0.0515521,0.46502480,310.5114,05/31.0/2023,2000,g 12.0,2.0
# From MPC 73461
P/2005 T3 (Read),e,6.2247,27.6416,6.7325,7.588460,0.0471491,0.17553711,304.7602,05/31.0/2023,2000,g  9.0,4.0
# From MPC 73461
P/2005 T4 (SWAN),e,160.2760,25.9402,41.8706,9.357038,0.0344347,0.92996084,221.7248,05/31.0/2023,2000,g 15.0,4.0
# From MPC 75706
P/2005 T5 (Broughton),e,21.3828,57.0040,304.7403,7.275746,0.0502213,0.55257787,322.5630,05/31.0/2023,2000,g 11.0,4.0
# From MPC 75707
P/2006 HR30 (Siding Spring),e,31.8821,309.7885,117.4361,7.806722,0.0451857,0.84337092,271.5286,05/31.0/2023,2000,g 11.0,4.0
# From MPC 75707
P/2007 C2 (Catalina),e,8.6038,275.2546,180.1884,7.002983,0.0531838,0.47254328,305.4076,05/31.0/2023,2000,g 10.0,4.0
# From MPC 84315
C/2007 D1 (LINEAR),e,41.5025,171.2100,339.7379,1157,0.0000250,0.99241935,0.0000,06/07.8835/2007,2000,g  3.5,4.0
# From MPC 82314
P/2007 K2 (Gibbs),e,7.6275,188.6345,347.3102,7.282482,0.0501516,0.68355651,294.4070,05/31.0/2023,2000,g 14.0,4.0
# From MPC 60925
P/2007 Q2 (Gilmore),e,10.2021,172.1584,162.8808,5.659167,0.0732108,0.66981236,67.0013,05/31.0/2023,2000,g 16.0,4.0
# From MPC 73462
P/2007 S1 (Zhao),e,5.9611,141.3404,245.1869,3.817186,0.1321567,0.33859783,31.2260,05/31.0/2023,2000,g 13.0,4.0
# From MPC 61994
P/2007 T2 (Kowalski),e,9.7512,3.3732,359.6804,3.044801,0.1855093,0.78567384,328.3492,05/31.0/2023,2000,g 18.5,4.0
# From MPC 75709
P/2008 L2 (Hill),e,25.8696,218.0125,141.2567,6.035192,0.0664764,0.61394064,1.3283,05/31.0/2023,2000,g 12.5,4.0
# From MPC 64114
P/2008 O3 (Boattini),e,32.3460,47.5603,341.1978,8.213253,0.0418727,0.69651742,229.1404,05/31.0/2023,2000,g 13.0,4.0
# From MPC 75710
P/2008 Y3 (McNaught),e,38.7824,262.8807,238.0023,8.046489,0.0431812,0.44631306,228.0397,05/31.0/2023,2000,g  8.5,4.0
# From MPC 75710
P/2009 B1 (Boattini),e,22.2448,297.0699,128.9319,6.735702,0.0563806,0.63585593,296.4907,05/31.0/2023,2000,g 13.0,4.0
# From MPC 66466
C/2009 G1 (STEREO),e,108.3638,120.6353,175.5278,470.5371,0.0000966,0.99758053,0.0000,04/19.1579/2009,2000,g  9.0,4.0
# From MPC 75710
P/2009 O3 (Hill),e,16.2872,183.6862,154.5005,7.767023,0.0455326,0.68748755,232.8200,05/31.0/2023,2000,g 12.5,4.0
# From MPC 68902
P/2009 Q5 (McNaught),e,40.9745,160.2568,209.1518,7.427691,0.0486882,0.60993114,243.5897,05/31.0/2023,2000,g 10.0,4.0
# From MPC112389
P/2009 T2 (La Sagra),e,27.6132,215.9154,216.3298,7.716229,0.0459829,0.76685162,225.1522,05/31.0/2023,2000,g 14.0,4.0
# From MPC105235
P/2009 WX51 (Catalina),e,9.5960,31.5456,118.2718,3.082757,0.1820938,0.73928733,168.6947,05/31.0/2023,2000,g 19.0,2.0
# From MPC 74247
P/2009 Y2 (Kowalski),e,29.9725,262.0528,172.1503,6.548104,0.0588208,0.63705830,284.6530,05/31.0/2023,2000,g 13.0,4.0
# From MPC 75711
P/2010 A3 (Hill),e,14.8147,63.6000,42.3000,6.089813,0.0655840,0.73389044,317.3286,05/31.0/2023,2000,g 14.0,4.0
# From MPC 75008
P/2010 C1 (Scotti),e,9.1208,141.8337,3.2113,7.109149,0.0519969,0.26140800,258.5334,05/31.0/2023,2000,g  9.5,4.0
# From MPC 75008
P/2010 D2 (WISE),e,57.1080,319.8797,119.9104,6.722483,0.0565470,0.45155441,275.1625,05/31.0/2023,2000,g 16.0,4.0
# From MPC 75009
P/2010 E2 (Jarnac),e,15.3886,177.8222,8.2683,8.639836,0.0388102,0.71953503,187.0348,05/31.0/2023,2000,g 14.0,4.0
# From MPC 72851
P/2010 H2 (Vales),e,14.2806,64.1873,128.0389,3.831599,0.1314117,0.19698081,274.7447,05/31.0/2023,2000,g  6.0,4.0
# From MPC 70361
P/2010 H3 (SOHO),e,23.1108,77.1364,26.1033,3.036110,0.1863064,0.98543126,0.0000,02/07.8548/2021,2000,g 20.0,2.0
# From MPC 73463
P/2010 H4 (Scotti),e,2.3178,44.7273,179.1815,6.604315,0.0580714,0.26603279,275.7537,05/31.0/2023,2000,g 10.5,4.0
# From MPC 74637
P/2010 H5 (Scotti),e,14.0569,24.7926,174.5385,7.173594,0.0512978,0.15266917,247.7781,05/31.0/2023,2000,g 13.0,2.0
# From MPC 98558
P/2010 J3 (McMillan),e,13.2536,106.4914,157.5470,8.982817,0.0366088,0.72502795,170.7856,05/31.0/2023,2000,g 11.0,4.0
# From MPC 84315
P/2010 JC81 (WISE),e,38.8323,30.8723,12.4415,8.104698,0.0427168,0.77812632,188.6472,05/31.0/2023,2000,g  9.0,4.0
# From MPC xxxxx
P/2010 OE101 (WISE),e,18.4122,194.3758,174.8045,3.142451,0.1769299,0.57034097,106.7027,05/31.0/2023,2000,g 18.5,4.0
# From MPC 74248
P/2010 T2 (PANSTARRS),e,7.8961,58.4165,352.1952,5.600747,0.0743593,0.32611022,338.7481,05/31.0/2023,2000,g 11.5,4.0
# From MPEC 2023-B57
P/2010 TO20 (LINEAR-Grauer),e,2.4788,43.2764,267.6737,5.832592,0.0699700,0.05563376,12.7524,05/31.0/2023,2000,g  9.0,4.0
# From MPC 82316
P/2010 U1 (Boattini),e,8.2232,280.6723,86.3902,6.498007,0.0595023,0.24917197,288.8958,05/31.0/2023,2000,g  9.5,4.0
# From MPEC 2023-J95
C/2010 U3 (Boattini),e,55.5629,42.9894,88.0380,3124,0.0000056,0.99729884,0.0000,02/25.5819/2019,2000,g  1.0,4.0
# From MPC 79021
P/2010 UH55 (Spacewatch),e,8.0376,232.8917,225.1583,6.654114,0.0574207,0.56404325,254.9151,05/31.0/2023,2000,g 11.0,4.0
# From MPC 75009
P/2010 WK (LINEAR),e,11.4018,11.3284,41.0032,5.761985,0.0712600,0.69062562,330.2609,05/31.0/2023,2000,g 14.5,2.0
# From MPC 84021
P/2011 C2 (Gibbs),e,10.8881,12.1196,160.3332,7.412679,0.0488361,0.26942493,204.5657,05/31.0/2023,2000,g  9.0,4.0
# From MPC 79866
P/2011 FR143 (Lemmon),e,15.9757,190.9492,349.8506,6.865951,0.0547839,0.45106997,246.0622,05/31.0/2023,2000,g 14.0,2.0
# From MPC 82317
P/2011 JB15 (Spacewatch-Boattini),e,19.1435,153.6023,110.9832,7.370104,0.0492599,0.31536034,204.7680,05/31.0/2023,2000,g  9.0,4.0
# From MPEC 2023-J95
C/2011 KP36 (Spacewatch),e,18.9867,173.2687,180.9268,39.42760,0.0039811,0.87576037,10.1834,05/31.0/2023,2000,g  4.5,4.0
# From MPC 87913
P/2011 N1 (ASH),e,35.7821,77.5757,330.4243,6.242447,0.0631934,0.54528615,254.1815,05/31.0/2023,2000,g 11.5,4.0
# From MPC 75714
P/2011 NO1 (Elenin),e,15.2452,295.8252,263.7078,5.534684,0.0756946,0.77476255,342.5929,05/31.0/2023,2000,g 15.0,4.0
# From MPEC 2022-ED3
P/2011 P1 (McNaught),e,5.6596,4.2285,349.1996,7.458531,0.0483865,0.32754021,226.5807,05/31.0/2023,2000,g  9.0,4.0
# From MPEC 2022-HC2
P/2011 S1 (Gibbs),e,2.6885,218.8164,192.6042,8.584676,0.0391849,0.20168875,125.7143,05/31.0/2023,2000,g  8.0,4.0
# From MPC 79022
P/2011 UA134 (Spacewatch-PANSTARRS),e,10.4403,40.3931,32.4147,5.610115,0.0741731,0.62995231,313.4280,05/31.0/2023,2000,g 17.5,4.0
# From MPC 77406
P/2011 V1 (Boattini),e,7.3751,46.7742,269.3900,3.857905,0.1300699,0.54976982,221.3757,05/31.0/2023,2000,g 15.5,4.0
# From MPC 82718
P/2011 W1 (PANSTARRS),e,3.7184,161.7852,282.8301,4.668376,0.0977137,0.28831267,46.5901,05/31.0/2023,2000,g 11.5,4.0
# From MPC 79342
P/2011 Y2 (Boattini),e,6.3818,309.3086,131.9884,6.236532,0.0632833,0.71063623,259.6597,05/31.0/2023,2000,g 15.0,4.0
# From MPEC 2022-K19
P/2012 B1 (PANSTARRS),e,7.6104,36.2163,162.2856,6.532472,0.0590320,0.40921265,213.4546,05/31.0/2023,2000,g  9.0,4.0
# From MPC 78590
P/2012 C3 (PANSTARRS),e,9.0920,135.3677,344.9542,9.748681,0.0323806,0.63011148,359.9758,10/06.0/2011,2000,g 13.0,4.0
# From MPC 84931
